ONEWEB-0226             
1 48793U 21045AC  24052.76076544 -.00000063  00000+0 -20269-3 0  9997
2 48793  87.8941  67.6727 0002405  81.6490 278.4913 13.15549165133061
ONEWEB-0224             
1 48794U 21045AD  24052.95249670  .00000239  00000+0  60062-3 0  9999
2 48794  87.8947  67.6508 0001641  64.3696 295.7604 13.15549693133012
ONEWEB-0233             
1 48795U 21045AE  24052.94853564  .00000254  00000+0  64064-3 0  9995
2 48795  87.8946  67.6642 0002112  89.1281 271.0091 13.15549274133034
ONEWEB-0190             
1 48796U 21045AF  24052.79245138  .00000182  00000+0  45009-3 0  9999
2 48796  87.8946  67.6575 0002567  66.4266 293.7133 13.15547018133082
ONEWEB-0236             
1 48797U 21045AG  24052.96200306  .00000160  00000+0  38963-3 0  9994
2 48797  87.8951  67.6132 0001841  86.9405 273.1936 13.15549072132998
ONEWEB-0248             
1 48798U 21045AH  24052.74649542 -.00000016  00000+0 -76272-4 0  9998
2 48798  87.8942  67.6570 0001833  64.3509 295.7811 13.15550130133126
ONEWEB-0225             
1 48799U 21045AJ  24052.76869068 -.00000022  00000+0 -92450-4 0  9991
2 48799  87.8944  67.6590 0002059  76.5337 283.6023 13.15548392133135
ONEWEB-0215             
1 48800U 21045AK  24052.73857232  .00000080  00000+0  17751-3 0  9993
2 48800  87.8941  67.6458 0002134  63.1008 297.0340 13.15550434133006
